C/2019 S4 (Lemmon),e,92.0245,63.1670,71.3573,238.1096,0.0002682,0.98554564,0.0000,04/07.9481/2020,2000,g 11.5,4.0
# From MPC118843
A/2019 T1,e,120.8689,6.9501,91.0094,38.23957,0.0041681,0.88802829,359.2700,07/23.0/2020,2000,g 13.0,2.0
# From MPEC 2020-AA5
C/2019 T2,e,111.4676,155.6386,239.3921,2241,0.0000093,0.99881955,0.0000,04/22.2885/2021,2000,g 12.5,2.0
# From MPC119998
C/2019 T3 (ATLAS),e,121.8627,139.5186,112.2614,6495,0.0000019,0.99908450,0.0000,03/02.5108/2021,2000,g  6.8,4.0
# From MPC119998
C/2019 T4 (ATLAS),e,53.6166,199.9681,351.2149,1013,0.0000306,0.99581111,0.0000,06/09.3761/2022,2000,g  5.0,4.0
# From MPC119998
P/2019 T5 (ATLAS),e,33.4235,247.6933,189.6057,8.011805,0.0434619,0.80920521,15.5106,07/23.0/2020,2000,g 15.0,4.0
# From MPC119998
P/2019 T6 (PANSTARRS),e,18.6959,71.3092,328.9052,5.433442,0.0778200,0.62238158,20.0963,07/23.0/2020,2000,g 15.5,4.0
# From MPC118096
P/2019 U4 (PANSTARRS),e,11.6907,200.0305,180.9599,3.520260,0.1492251,0.47535767,46.0562,07/23.0/2020,2000,g 19.0,4.0
# From MPC118844
A/2019 U5,h,03/30.3786/2023,113.5258,2.6913,181.6122,1.000509,3.620950,2000,10.0,2.0
# From MPC119998
C/2019 V1 (Borisov),e,61.8633,83.2053,51.1961,2263,0.0000092,0.99863118,0.0000,07/16.5611/2020,2000,g 11.0,4.0
# From MPC119998
P/2019 V2 (Groeller),e,11.8036,189.1649,336.3625,7.515815,0.0478344,0.33253469,355.6002,07/23.0/2020,2000,g 10.0,4.0
# From MPC119998
P/2019 W1 (PANSTARRS),e,23.4600,35.4130,18.7159,4.550358,0.1015397,0.26614716,44.9013,07/23.0/2020,2000,g 12.9,4.0
# From MPC119998
P/2019 X1 (Pruyne),e,10.2447,43.7119,36.6145,6.177274,0.0641961,0.30339111,23.6950,07/23.0/2020,2000,g 10.4,4.0
# From MPC119999
C/2019 Y1 (ATLAS),e,73.2522,31.5188,57.9768,86.41159,0.0012270,0.99037650,0.0000,03/15.5971/2020,2000,g 13.7,4.0
# From MPEC 2020-N31
P/2019 Y2 (Fuls),e,4.8962,80.8369,92.3445,3.454350,0.1535163,0.38485316,26.5836,07/23.0/2020,2000,g 13.2,4.0
# From MPEC 2020-N31
A/2020 A1,e,149.0354,119.2923,302.6149,24.66371,0.0080467,0.93229100,1.8782,07/23.0/2020,2000,g 18.0,2.0
# From MPEC 2020-L06
C/2019 Y4 (ATLAS),e,45.3833,120.5713,177.2964,425.4164,0.0001123,0.99940556,0.0000,05/31.0484/2020,2000,g 11.8,6.0
# From MPEC 2020-L06
C/2019 Y4-A (ATLAS),h,05/31.0421/2020,45.8250,120.9276,177.2458,1.001331,0.251009,2000,11.6,6.0
# From MPEC 2020-L06
C/2019 Y4-B (ATLAS),e,45.4597,120.6234,177.3791,1037,0.0000295,0.99975645,0.0000,05/31.0209/2020,2000,g 12.8,6.0
# From MPEC 2020-L06
C/2019 Y4-C (ATLAS),h,05/31.0004/2020,45.6074,120.6533,177.2792,1.002049,0.252058,2000,12.7,6.0
# From MPEC 2020-L06
C/2019 Y4-D (ATLAS),e,45.6487,121.0340,177.4180,67.05529,0.0017950,0.99624999,0.0000,05/31.1175/2020,2000,g 12.5,6.0
# From MPEC 2020-L06
C/2020 A2 (Iwamoto),e,120.7506,286.3791,68.2134,1186,0.0000241,0.99917543,0.0000,01/08.3290/2020,2000,g 13.5,4.0
# From MPEC 2020-L06
C/2020 A3 (ATLAS),h,07/29.5656/2019,146.7770,120.3768,271.1625,1.024625,5.839463,2000,8.0,4.0
# From MPEC 2020-L06
C/2020 B3 (Rankin),e,20.7040,185.8253,325.0859,1686,0.0000142,0.99801578,0.0000,10/19.8461/2019,2000,g 13.0,4.0
# From MPEC 2020-N31
C/2020 F2 (ATLAS),h,07/16.7446/2022,163.5739,250.2496,48.3713,1.002053,8.817197,2000,4.5,4.0
# From MPEC 2020-N31
C/2020 F3 (NEOWISE),e,128.9373,61.0112,37.2744,364.3182,0.0001417,0.99919107,0.0000,07/03.6813/2020,2000,g  7.5,5.2
# From MPEC 2020-N31
C/2020 F5 (MASTER),h,03/24.1462/2021,51.7023,350.6424,311.0379,1.002596,4.326454,2000,6.5,3.2
# From MPEC 2020-N31
C/2020 F6 (PANSTARRS),e,174.5816,207.8797,344.5970,392.6465,0.0001267,0.99105781,0.0000,04/11.5961/2020,2000,g 14.5,2.8
# From MPEC 2020-L06
A/2020 F7,e,93.9493,321.8860,227.9949,794.9345,0.0000440,0.99329334,0.0000,11/14.1497/2021,2000,g 12.0,2.0
# From MPEC 2020-N31
C/2020 F8 (SWAN),h,05/27.5415/2020,110.7939,260.0381,68.1900,1.000256,0.430298,2000,10.0,4.0
# From MPEC 2020-N31
P/2020 G1 (Pimentel),e,18.4749,240.0994,207.6501,3.606820,0.1438856,0.85976094,18.3584,07/23.0/2020,2000,g 17.0,4.0
# From MPEC 2020-N31
C/2020 H2 (Pruyne),e,125.0444,277.6346,26.6929,184.6880,0.0003927,0.99548627,0.0000,04/27.5898/2020,2000,g 14.0,3.2
# From MPEC 2020-N31
C/2020 H3 (Wierzchos),h,06/03.5630/2020,62.3669,270.5679,29.6068,1.001978,2.304342,2000,13.0,4.0
# From MPEC 2020-N31
C/2020 H4 (Leonard),e,84.3196,307.7690,116.7655,143.5072,0.0005733,0.99346104,0.0000,08/29.2459/2020,2000,g 15.0,3.2
# From MPEC 2020-N31
C/2020 H5 (Robinson),e,70.2093,210.6408,326.1798,2864,0.0000064,0.99673607,0.0000,12/07.5632/2020,2000,g  5.0,4.0
# From MPEC 2020-N31
C/2020 H6 (ATLAS),h,10/01.0034/2021,79.9498,213.7089,20.3367,1.000817,4.703148,2000,8.0,3.2
# From MPEC 2020-N31
C/2020 H7 (Lemmon),e,135.9228,323.5282,82.7757,7371,0.0000016,0.99940031,0.0000,06/03.5546/2020,2000,g 11.0,4.0
# From MPEC 2020-N31
C/2020 H8 (PANSTARRS),e,99.6419,68.4130,128.8768,565.9641,0.0000732,0.99174112,0.0000,06/04.0471/2020,2000,g 10.5,4.0
# From MPEC 2020-N31
A/2020 H9,e,137.8559,213.1214,312.8307,369.3658,0.0001388,0.99302016,0.0000,12/21.1537/2019,2000,g 18.0,2.0
# From MPEC 2020-N31
C/2020 J1 (SONEAR),e,142.3025,226.5617,341.7168,10105,0.0000010,0.99966796,0.0000,04/18.5602/2021,2000,g  8.5,3.2
# From MPEC 2020-N31
C/2020 K1 (PANSTARRS),e,89.6473,94.3866,213.9394,3581,0.0000046,0.99914056,0.0000,05/09.5737/2023,2000,g  5.5,4.0
# From MPEC 2020-N31
C/2020 K2 (PANSTARRS),e,91.0296,288.3243,67.3202,14342,0.0000006,0.99938111,0.0000,08/05.6518/2020,2000,g  6.5,4.0
# From MPEC 2020-N31
C/2020 K3 (Leonard),e,128.7155,27.9285,62.6991,210.4058,0.0003229,0.99242677,0.0000,05/30.1233/2020,2000,g 14.5,4.0
# From MPEC 2020-N31
C/2020 K4 (PANSTARRS),e,125.9027,264.1046,310.2475,44.39850,0.0033316,0.96008522,0.4617,07/23.0/2020,2000,g 16.5,4.0
# From MPEC 2020-N31
C/2020 K5 (PANSTARRS),h,06/05.5267/2021,67.1763,86.1513,249.6079,1.001737,1.534931,2000,11.0,4.0
# From MPEC 2020-N31
C/2020 K6 (Rankin),e,103.6310,291.5301,43.9071,9717,0.0000010,0.99939475,0.0000,09/12.3418/2021,2000,g  8.0,4.0
# From MPEC 2020-N31
C/2020 K7 (PANSTARRS),e,32.0424,286.0939,358.1645,108.1509,0.0008763,0.94099824,0.2346,07/23.0/2020,2000,g  8.0,4.0
# From MPEC 2020-N31
C/2020 K8 (Catalina-ATLAS),h,09/14.5186/2020,31.4132,181.5202,260.0568,1.000244,0.474614,2000,15.0,3.2
# From MPEC 2020-N31
P/2020 K9 (Lemmon-PANSTARRS),e,23.2349,166.1565,198.0040,4.187976,0.1150000,0.32321266,336.1515,07/23.0/2020,2000,g 12.5,4.0
# From MPEC 2020-N31
P/2020 M1 (PANSTARRS),e,8.6330,142.9499,67.8694,5.089160,0.0858489,0.47714383,18.4426,07/23.0/2020,2000,g 14.5,4.0
# From MPEC 2020-N31
C/2020 M3 (ATLAS),e,23.5068,71.4052,328.1461,30.19140,0.0059413,0.95789896,359.4387,07/23.0/2020,2000,g 14.5,4.0
# From  98, 1083
1P/Halley,e,162.3013,58.3071,111.2463,17.87082,0.0130463,0.96617386,164.4080,07/23.0/2020,2000,g  4.0,6.0
# From MPC118097
2P/Encke,e,11.7646,334.5516,186.5628,2.215254,0.2989296,0.84799863,8.1174,07/23.0/2020,2000,g 11.5,6.0
# From MPEC 2015-A10
4P/Faye,e,8.0084,193.1554,206.8436,3.827640,0.1316156,0.57778463,305.6161,07/23.0/2020,2000,g  8.0,6.0
# From MPEC 2015-S97
6P/d'Arrest,e,19.5119,138.9338,178.0898,3.497912,0.1506575,0.61259234,296.4550,07/23.0/2020,2000,g  9.0,4.0
# From MPEC 2015-E14
7P/Pons-Winnecke,e,22.3643,93.3799,172.5739,3.415024,0.1561757,0.63853809,311.8842,07/23.0/2020,2000,g  9.0,4.0
# From MPC 75715
8P/Tuttle,e,54.9115,270.2044,207.4913,5.703075,0.0723670,0.82005849,330.9956,07/23.0/2020,2000,g  9.0,4.0
# From MPEC 2019-JE2
9P/Tempel,e,10.4719,68.7338,179.3173,3.147268,0.1765239,0.50948385,255.8856,07/23.0/2020,2000,g  9.0,4.0
# From MPC114607
10P/Tempel,e,12.0398,117.8102,195.5158,3.060688,0.1840668,0.53850687,315.0326,07/23.0/2020,2000,g  5.0,10.0
# From MPEC 2017-L52
11P/Tempel-Swift-LINEAR,e,14.4203,238.9194,167.9335,3.283104,0.1656827,0.57696637,339.0887,07/23.0/2020,2000,g  9.0,4.0
# From  27, 604
12P/Pons-Brooks,e,74.0771,255.7128,199.0422,17.08990,0.0139507,0.95428914,340.9137,07/23.0/2020,2000,g  5.0,6.0
# From  27, 604
13P/Olbers,e,44.6267,85.8507,64.5485,16.67479,0.0144748,0.92971830,339.1640,07/23.0/2020,2000,g  5.0,6.0
# From MPC100283
14P/Wolf,e,27.9028,202.0785,158.9781,4.259117,0.1121308,0.35664009,108.0797,07/23.0/2020,2000,g  5.5,12.0
# From MPC 92276
15P/Finlay,e,6.7977,13.7222,347.8363,3.504237,0.1502498,0.71696530,306.5752,07/23.0/2020,2000,g 12.0,4.0
# From MPC 92276
16P/Brooks,e,3.0106,138.8751,245.1355,3.660229,0.1407478,0.48693650,322.1349,07/23.0/2020,2000,g  7.5,10.0
# From MPC114607
17P/Holmes,e,19.0269,326.6277,24.4915,3.638419,0.1420153,0.42824618,329.9103,07/23.0/2020,2000,g 10.0,6.0
# From MPC 92984
19P/Borrelly,e,29.4118,74.4266,351.8110,3.605409,0.1439701,0.63848569,279.5915,07/23.0/2020,2000,g  4.5,10.0
# From MPC111773
21P/Giacobini-Zinner,e,32.0133,195.3647,172.8464,3.496015,0.1507801,0.71065930,102.7742,07/23.0/2020,2000,g  9.0,6.0
# From MPC 94283
22P/Kopff,e,4.7420,120.8371,162.9620,3.442880,0.1542842,0.54890065,266.9687,07/23.0/2020,2000,g  3.0,10.4
# From MPC 14747
23P/Brorsen-Metcalf,e,19.1355,312.4100,128.8289,16.95495,0.0141176,0.97100787,0.0000,08/11.8360/1989,2000,g 10.0,6.0
# From MPC110085
24P/Schaumasse,e,11.6679,79.3408,57.7599,4.059063,0.1205217,0.70853687,117.9270,07/23.0/2020,2000,g  6.5,14.0
# From MPC 94674
26P/Grigg-Skjellerup,e,22.4437,211.5385,2.1948,3.013934,0.1883664,0.64063558,124.3881,07/23.0/2020,2000,g 12.0,16.0
# From MPC 78188
27P/Crommelin,e,29.1322,250.5799,195.9949,9.190068,0.0353774,0.91796129,116.2739,07/23.0/2020,2000,g 12.0,8.0
# From MPEC 2020-N31
28P/Neujmin,e,14.3110,346.3428,347.4267,6.974581,0.0535090,0.77375086,347.5900,07/23.0/2020,2000,g  8.5,6.0
# From MPEC 2020-N31
29P/Schwassmann-Wachmann,e,9.3668,312.3753,48.2965,6.033376,0.0665064,0.04410261,33.0006,07/23.0/2020,2000,g  4.0,4.0
# From MPC110085
30P/Reinmuth,e,8.5158,118.9160,12.2117,3.705424,0.1381806,0.52415674,146.1829,07/23.0/2020,2000,g  9.5,6.0
# From MPC108597
31P/Schwassmann-Wachmann,e,4.5473,114.1147,18.2674,4.241169,0.1128433,0.19241319,43.2635,07/23.0/2020,2000,g  5.0,8.0
# From MPC 92276
